[{"OBJECT_NAME":"BNU-1 (JINGSHI 1)","OBJECT_ID":"2019-059B","EPOCH":"2026-03-09T22:44:13.004736","MEAN_MOTION":14.48293204,"ECCENTRICITY":0.00122993,"INCLINATION":98.5897,"RA_OF_ASC_NODE":196.2785,"ARG_OF_PERICENTER":317.1468,"MEAN_ANOMALY":42.8765,"EPHEMERIS_TYPE":0,"CLASSIFICATION_TYPE":"U","NORAD_CAT_ID":44529,"ELEMENT_SET_NO":999,"REV_AT_EPOCH":34262,"BSTAR":0.00022298879,"MEAN_MOTION_DOT":7.88e-6,"MEAN_MOTION_DDOT":0},{"OBJECT_NAME":"CZ-6A DEB","OBJECT_ID":"2022-151SJ","EPOCH":"2026-03-09T07:20:56.719392","MEAN_MOTION":14.61512797,"ECCENTRICITY":0.00708062,"INCLINATION":99.1247,"RA_OF_ASC_NODE":191.8079,"ARG_OF_PERICENTER":296.376,"MEAN_ANOMALY":63.0181,"EPHEMERIS_TYPE":0,"CLASSIFICATION_TYPE":"U","NORAD_CAT_ID":54945,"ELEMENT_SET_NO":999,"REV_AT_EPOCH":10351,"BSTAR":0.0019223113,"MEAN_MOTION_DOT":9.833e-5,"MEAN_MOTION_DDOT":0}]
